O3B FM5                 
1 39188U 13031A   26065.89606859 -.00000026  00000+0  00000+0 0  9994
2 39188   0.0981  13.3428 0003327 323.3646  23.2725  5.00116485231919
O3B FM4                 
1 39189U 13031B   26065.21566536 -.00000026  00000+0  00000+0 0  9998
2 39189   0.0553 345.1172 0005086   9.2557   5.6159  5.00115247231899
O3B FM2                 
1 39190U 13031C   26066.08090852 -.00000026  00000+0  00000+0 0  9999
2 39190   0.0561 338.8755 0002815   5.7081  15.4029  5.00116011232005
O3B PFM                 
1 39191U 13031D   26065.09556941 -.00000026  00000+0  00000+0 0  9996
2 39191   0.0668   7.2787 0005147 352.3292   0.3862  5.00115906231517
O3B FM3                 
1 40079U 14038A   26065.96175506 -.00000026  00000+0  00000+0 0  9991
2 40079   0.0530 353.4777 0000638  57.1388 309.3841  5.00115587207936
O3B FM7                 
1 40080U 14038B   26061.31035470 -.00000029  00000+0  00000+0 0  9996
2 40080   0.0588 348.9474 0004488 339.4059  31.6123  5.00115622212532
O3B FM6                 
1 40081U 14038C   26065.73495754 -.00000026  00000+0  00000+0 0  9999
2 40081   0.0549 351.2792 0002664 351.0679  17.6384  5.00115757212703
O3B FM8                 
1 40082U 14038D   26065.38849376 -.00000026  00000+0  00000+0 0  9994
2 40082   0.0558 350.6402 0002654 356.7405  12.6073  5.00116014212801
O3B FM10                
1 40348U 14083A   26065.81533533 -.00000026  00000+0  00000+0 0  9992
2 40348   0.0432 347.7342 0002686 356.4315  15.8207  5.00115243204773
O3B FM11                
1 40349U 14083B   26065.82805608 -.00000026  00000+0  00000+0 0  9999
2 40349   0.0568   0.4218 0003132 333.6061  25.9513  5.00115618204791
O3B FM12                
1 40350U 14083C   26062.45701119 -.00000028  00000+0  00000+0 0  9991
2 40350   0.0560 359.7796 0002643 337.6957  22.5061  5.00115945204637
O3B FM9                 
1 40351U 14083D   26065.88197959 -.00000026  00000+0  00000+0 0  9991
2 40351   0.0579   0.6785 0002732 343.7503  15.5577  5.00115924204958
LEO 1 (LEO VANTAGE 1)   
1 43113U 18004C   26066.18308349  .00005341  00000+0  37085-3 0  9999
2 43113  99.2481 331.1777 0353165  32.5762 329.6702 14.67152946422523
O3B FM15                
1 43231U 18024A   26065.94874338 -.00000026  00000+0  00000+0 0  9990
2 43231   0.0487   0.8766 0002685 341.1215  17.9873  5.00115720145915
O3B FM16                
1 43232U 18024B   26065.20155549 -.00000026  00000+0  00000+0 0  9996
2 43232   0.0450   2.8168 0002827 339.2721  17.8957  5.00115882145799
O3B FM14                
1 43233U 18024C   26065.84198153 -.00000026  00000+0  00000+0 0  9995
2 43233   0.0435   1.8148 0002845 344.5803  13.5921  5.00115670145834
O3B FM13                
1 43234U 18024D   26062.10991137 -.00000028  00000+0  00000+0 0  9997
2 43234   0.0485 331.6373 0004295 331.6147  56.6997  5.00115687145742
